     2.100          NAVIGATION                              RINEX VERSION / TYPE
fic2rin                                 05/30/2016 00:04:39 PGM / RUN BY / DATE
                                                            END OF HEADER
20 16  5 29 22  0  0.0  .415266491473D-03  .227373675443D-11  .000000000000D+00
     .450000000000D+02 -.818750000000D+01  .514950021164D-08  .236425624991D+01
    -.521540641785D-06  .456775061321D-02  .111851841211D-04  .515374694443D+04
     .792000000000D+05  .894069671631D-07 -.132650014036D+01 -.745058059692D-08
     .925966234119D+00  .142468750000D+03  .137530651072D+01 -.825212944860D-08
    -.410731394325D-10  .100000000000D+01  .189900000000D+04  .000000000000D+00
     .240000000000D+01  .000000000000D+00 -.838190317154D-08  .450000000000D+02
     .720060000000D+05  .400000000000D+01
23 16  5 29 22  0  0.0 -.175912398845D-03 -.159161572810D-11  .000000000000D+00
     .290000000000D+02  .532187500000D+02  .494806324955D-08  .185621997245D+01
     .273995101452D-05  .109579807613D-01  .692531466484D-05  .515367213058D+04
     .792000000000D+05 -.242143869400D-06 -.197029374973D+00  .670552253723D-07
     .946285234361D+00  .241093750000D+03 -.257367711301D+01 -.837892044424D-08
     .700029159024D-10  .100000000000D+01  .189900000000D+04  .000000000000D+00
     .240000000000D+01  .000000000000D+00 -.200234353542D-07  .290000000000D+02
     .720060000000D+05  .400000000000D+01
24 16  5 29 22  0  0.0 -.178045593202D-04 -.568434188608D-12  .000000000000D+00
     .100000000000D+03 -.915625000000D+01  .489270380075D-08  .128093736075D+01
    -.670552253723D-06  .441771768965D-02  .673718750477D-05  .515361695671D+04
     .792000000000D+05  .167638063431D-07  .828415623544D+00  .745058059692D-07
     .949519695032D+00  .242343750000D+03  .416582015170D+00 -.839034949173D-08
    -.307512809143D-09  .100000000000D+01  .189900000000D+04  .000000000000D+00
     .340000000000D+01  .000000000000D+00  .232830643654D-08  .100000000000D+03
     .720060000000D+05  .400000000000D+01
25 16  5 29 22  0  0.0 -.180573202670D-03 -.704858393874D-11  .000000000000D+00
     .900000000000D+01  .275625000000D+02  .413195782691D-08 -.753485347198D+00
     .157766044140D-05  .562546891160D-02  .101123005152D-04  .515375198555D+04
     .792000000000D+05  .670552253723D-07  .190124621223D+01  .875443220139D-07
     .978391085527D+00  .195812500000D+03  .775914722340D+00 -.794068790438D-08
     .137148569931D-09  .100000000000D+01  .189900000000D+04  .000000000000D+00
     .240000000000D+01  .000000000000D+00  .558793544769D-08  .900000000000D+01
     .720060000000D+05  .400000000000D+01
26 16  5 29 22  0  0.0 -.379885081202D-03 -.118234311230D-10  .000000000000D+00
     .670000000000D+02  .140937500000D+02  .444339937113D-08 -.156210694012D+01
     .523403286934D-06  .102743110619D-02  .982917845249D-05  .515377024460D+04
     .792000000000D+05  .353902578354D-07  .189222667858D+01 -.558793544769D-08
     .960360886451D+00  .187062500000D+03  .190288799984D+00 -.809283709915D-08
     .123933733766D-09  .100000000000D+01  .189900000000D+04  .000000000000D+00
     .240000000000D+01  .000000000000D+00  .698491930962D-08  .670000000000D+02
     .720060000000D+05  .400000000000D+01
27 16  5 29 22  0  0.0  .978196039796D-04  .409272615798D-11  .000000000000D+00
     .790000000000D+02  .172187500000D+02  .458626246481D-08 -.311311726478D+01
     .849366188049D-06  .369311089162D-02  .590085983276D-05  .515364033127D+04
     .792000000000D+05 -.149011611938D-06  .294250880913D+01 -.298023223877D-07
     .971640071155D+00  .272562500000D+03  .285939919688D+00 -.813141013444D-08
     .252867675811D-09  .100000000000D+01  .189900000000D+04  .000000000000D+00
     .240000000000D+01  .000000000000D+00  .139698386192D-08  .790000000000D+02
     .720060000000D+05  .400000000000D+01
28 16  5 29 22  0  0.0  .526478048414D-03  .261479726760D-11  .000000000000D+00
     .480000000000D+02  .297187500000D+02  .375122768226D-08 -.232596907831D+01
     .159256160259D-05  .197271578945D-01  .890530645847D-05  .515363120079D+04
     .792000000000D+05  .230967998505D-06  .197594029021D+01  .149011611938D-06
     .989408684386D+00  .216218750000D+03 -.161628162149D+01 -.741888045472D-08
     .243938732456D-09  .100000000000D+01  .189900000000D+04  .000000000000D+00
     .240000000000D+01  .000000000000D+00 -.111758708954D-07  .480000000000D+02
     .720060000000D+05  .400000000000D+01
29 16  5 29 22  0  0.0  .657030381262D-03 -.227373675443D-12  .000000000000D+00
     .580000000000D+02  .662500000000D+01  .461554939902D-08 -.805343335405D+00
     .420957803726D-06  .959834782407D-03  .504776835442D-05  .515356282806D+04
     .792000000000D+05  .149011611938D-07  .300212280278D+01  .111758708954D-07
     .977675139271D+00  .293250000000D+03 -.225895575035D+00 -.825891544555D-08
     .277154401736D-09  .100000000000D+01  .189900000000D+04  .000000000000D+00
     .240000000000D+01  .000000000000D+00 -.102445483208D-07  .580000000000D+02
     .720060000000D+05  .400000000000D+01
30 16  5 29 22  0  0.0  .129156745970D-03  .295585778076D-11  .000000000000D+00
     .150000000000D+02 -.111562500000D+02  .471591072233D-08  .474525075497D+00
    -.551342964172D-06  .211288768332D-02  .657327473164D-05  .515360179329D+04
     .792000000000D+05  .931322574615D-08  .919748277836D+00  .335276126862D-07
     .952176186029D+00  .248625000000D+03  .301589813681D+01 -.829605984991D-08
    -.183936233111D-09  .100000000000D+01  .189900000000D+04  .000000000000D+00
     .240000000000D+01  .000000000000D+00  .325962901115D-08  .150000000000D+02
     .720060000000D+05  .400000000000D+01
31 16  5 29 22  0  0.0  .266530085355D-03 -.193267624127D-11  .000000000000D+00
     .920000000000D+02 -.136875000000D+02  .441089801732D-08  .218828070039D+00
    -.583007931709D-06  .816954998299D-02  .666454434395D-05  .515375279236D+04
     .792000000000D+05  .968575477600D-07  .884996576940D+00 -.113621354103D-06
     .971224306911D+00  .253062500000D+03 -.397054560402D+00 -.826177270742D-08
    -.212151694112D-09  .100000000000D+01  .189900000000D+04  .000000000000D+00
     .240000000000D+01  .000000000000D+00 -.135041773319D-07  .920000000000D+02
     .720060000000D+05  .400000000000D+01
32 16  5 29 22  0  0.0 -.144126825035D-04 -.693489710102D-11  .000000000000D+00
     .180000000000D+02  .508125000000D+02  .455554689967D-08 -.274614862555D+01
     .269338488579D-05  .410859705880D-03  .713393092155D-05  .515360876656D+04
     .792000000000D+05 -.540167093277D-07 -.200848277268D+00  .316649675369D-07
     .959946277913D+00  .242000000000D+03 -.236984990005D+01 -.811140930133D-08
     .232152527227D-09  .100000000000D+01  .189900000000D+04  .000000000000D+00
     .240000000000D+01  .000000000000D+00  .465661287308D-09  .180000000000D+02
     .720060000000D+05  .400000000000D+01
19 16  5 29 21 59 44.0 -.525637529790D-03  .113686837722D-12  .000000000000D+00
     .100000000000D+01  .103125000000D+01  .465376527657D-08  .573724140199D-02
     .203028321266D-06  .107927533099D-01  .494346022606D-05  .515361479568D+04
     .791840000000D+05  .316649675369D-07  .304115414764D+01  .117346644402D-06
     .973811143989D+00  .291875000000D+03  .776171009495D+00 -.838892086080D-08
     .133219834855D-09  .100000000000D+01  .189900000000D+04  .000000000000D+00
     .240000000000D+01  .000000000000D+00 -.149011611938D-07  .100000000000D+01
     .728160000000D+05  .400000000000D+01
24 16  5 29 21 59 44.0 -.178022310138D-04 -.568434188608D-12  .000000000000D+00
     .300000000000D+01 -.915625000000D+01  .489270380075D-08  .127860505679D+01
    -.670552253723D-06  .441771408077D-02  .673718750477D-05  .515361696625D+04
     .791840000000D+05  .167638063431D-07  .828415758133D+00  .745058059692D-07
     .949519706736D+00  .242343750000D+03  .416580373776D+00 -.839034949173D-08
    -.307512809143D-09  .100000000000D+01  .189900000000D+04  .000000000000D+00
     .240000000000D+01  .000000000000D+00  .232830643654D-08  .300000000000D+01
     .734460000000D+05  .400000000000D+01
19 16  5 29 23 59 44.0 -.525637064129D-03  .113686837722D-12  .000000000000D+00
     .200000000000D+01  .753125000000D+01  .459340561950D-08  .105584208968D+01
     .551342964172D-06  .107946130447D-01  .575371086597D-05  .515361904335D+04
     .863840000000D+05 -.428408384323D-07  .304109384323D+01  .182539224625D-06
     .973812052461D+00  .277718750000D+03  .776282611127D+00 -.836356266167D-08
     .144648882349D-09  .100000000000D+01  .189900000000D+04  .000000000000D+00
     .240000000000D+01  .000000000000D+00 -.149011611938D-07  .200000000000D+01
     .792060000000D+05  .400000000000D+01
24 16  5 29 23 59 44.0 -.178064219654D-04 -.568434188608D-12  .000000000000D+00
     .400000000000D+01 -.809375000000D+01  .480305720947D-08  .232888963919D+01
    -.413507223129D-06  .441758113448D-02  .651925802231D-05  .515361649513D+04
     .863840000000D+05 -.894069671631D-07  .828355083606D+00  .260770320892D-07
     .949518053638D+00  .245750000000D+03  .416514463465D+00 -.831320342115D-08
    -.226080845746D-09  .100000000000D+01  .189900000000D+04  .000000000000D+00
     .240000000000D+01  .000000000000D+00  .232830643654D-08  .400000000000D+01
     .792060000000D+05  .400000000000D+01
 1 16  5 30  0  0  0.0  .219652429223D-04  .125055521494D-11  .000000000000D+00
     .102000000000D+03 -.731875000000D+02  .473269713583D-08  .212040278491D+01
    -.378303229809D-05  .548219832126D-02  .681541860104D-05  .515364580917D+04
     .864000000000D+05 -.109896063805D-06 -.228332686689D+01  .149011611938D-07
     .964321469437D+00  .252281250000D+03  .463277783871D+00 -.819962726167D-08
    -.212151694112D-09  .100000000000D+01  .189900000000D+04  .000000000000D+00
     .240000000000D+01  .000000000000D+00  .512227416039D-08  .102000000000D+03
     .792060000000D+05  .400000000000D+01
